{
    "links": {
        "self": "http://www.neowsapp.com/rest/v1/neo/3824085?api_key=iIulBulltgU6a56xZRHN4H3l9WmuAYTsLGpBGhQ2"
    },
    "id": "3824085",
    "neo_reference_id": "3824085",
    "name": "(2018 JE2)",
    "designation": "2018 JE2",
    "nasa_jpl_url": "http://ssd.jpl.nasa.gov/sbdb.cgi?sstr=3824085",
    "absolute_magnitude_h": 25.1,
    "estimated_diameter": {
        "kilometers": {
            "estimated_diameter_min": 0.0253837029,
            "estimated_diameter_max": 0.0567596853
        },
        "meters": {
            "estimated_diameter_min": 25.3837029364,
            "estimated_diameter_max": 56.7596852866
        },
        "miles": {
            "estimated_diameter_min": 0.0157726969,
            "estimated_diameter_max": 0.0352688224
        },
        "feet": {
            "estimated_diameter_min": 83.279867942,
            "estimated_diameter_max": 186.2194458756
        }
    },
    "is_potentially_hazardous_asteroid": false,
    "close_approach_data": [
        {
            "close_approach_date": "2018-05-06",
            "close_approach_date_full": "2018-May-06 18:46",
            "epoch_date_close_approach": 1525632360000,
            "relative_velocity": {
                "kilometers_per_second": "11.6963397512",
                "kilometers_per_hour": "42106.8231044467",
                "miles_per_hour": "26163.542389538"
            },
            "miss_distance": {
                "astronomical": "0.0593443194",
                "lunar": "23.0849402466",
                "kilometers": "8877783.778839678",
                "miles": "5516399.0413484364"
            },
            "orbiting_body": "Earth"
        }
    ],
    "orbital_data": {
        "orbit_id": "3",
        "orbit_determination_date": "2018-05-19 06:41:10",
        "first_observation_date": "2018-05-09",
        "last_observation_date": "2018-05-17",
        "data_arc_in_days": 8,
        "observations_used": 28,
        "orbit_uncertainty": "8",
        "minimum_orbit_intersection": ".0580889",
        "jupiter_tisserand_invariant": "3.168",
        "epoch_osculation": "2458249.5",
        "eccentricity": ".5771885494579592",
        "semi_major_axis": "2.499727132764682",
        "inclination": "16.39752994850413",
        "ascending_node_longitude": "221.4801684828134",
        "orbital_period": "1443.568288507918",
        "perihelion_distance": "1.056913254963532",
        "perihelion_argument": "14.37281846734443",
        "aphelion_distance": "3.942541010565833",
        "perihelion_time": "2458254.485268769340",
        "mean_anomaly": "358.7567635204723",
        "mean_motion": ".2493820367667528",
        "equinox": "J2000",
        "orbit_class": {
            "orbit_class_type": "AMO",
            "orbit_class_description": "Near-Earth asteroid orbits similar to that of 1221 Amor",
            "orbit_class_range": "1.017 AU < q (perihelion) < 1.3 AU"
        }
    },
    "is_sentry_object": false
}